STARLINK-31368          
1 58970U 24031F   25272.14476054  .00005030  00000+0  18196-3 0  9993
2 58970  53.1619 326.7995 0001146  81.5269 278.5862 15.30177171 91809
STARLINK-31333          
1 58971U 24031G   25272.12637492  .00003080  00000+0  11608-3 0  9991
2 58971  53.1585 314.6044 0001278  99.0498 261.0647 15.30198741 91979
STARLINK-31351          
1 58972U 24031H   25271.57486609  .00001638  00000+0  67433-4 0  9997
2 58972  53.1608 329.6333 0001249  81.1168 278.9974 15.30189967 91708
STARLINK-31365          
1 58973U 24031J   25272.16902413  .00001520  00000+0  63450-4 0  9995
2 58973  53.1600 326.9372 0001314  94.2286 265.8865 15.30193122 91806
STARLINK-31361          
1 58974U 24031K   25272.16586148  .00001808  00000+0  73154-4 0  9990
2 58974  53.1603 326.9208 0001123  85.1522 274.9607 15.30196669 91802
STARLINK-31369          
1 58975U 24031L   25271.45373104  .00003881  00000+0  14309-3 0  9997
2 58975  53.1578 330.2996 0001013  91.7267 268.3850 15.30199823 91670
STARLINK-31324          
1 58976U 24031M   25272.17535899  .00024088  00000+0  82240-3 0  9990
2 58976  53.1585 326.9826 0001490 106.1653 253.9512 15.30214159 91789
STARLINK-31358          
1 58977U 24031N   25272.14266748 -.00001893  00000+0 -51841-4 0  9997
2 58977  53.1623 326.7626 0001289 115.0896 245.0239 15.30171065 91789
STARLINK-31355          
1 58978U 24031P   25272.17851914  .00002167  00000+0  85258-4 0  9998
2 58978  53.1591 326.9988 0001054  77.5155 282.5964 15.30203906 91788
STARLINK-31380          
1 58979U 24031Q   25272.18168914  .00002361  00000+0  91812-4 0  9990
2 58979  53.1579 327.0202 0001066  92.4624 267.6499 15.30201020 91788
STARLINK-31353          
1 58980U 24031R   25272.17957330  .00002924  00000+0  11083-3 0  9995
2 58980  53.1605 327.0111 0001388  91.1507 268.9653 15.30200249 91780
STARLINK-31339          
1 58981U 24031S   25272.18485125  .00002117  00000+0  83563-4 0  9992
2 58981  53.1588 327.0417 0001061  55.0756 305.0345 15.30200624 91781
STARLINK-31384          
1 58983U 24031U   25271.47272819  .00000991  00000+0  45594-4 0  9999
2 58983  53.1605 330.4143 0001072 107.2709 252.8409 15.30190616 91674
STARLINK-31379          
1 58984U 24031V   25272.13009347  .00008527  00000+0  29970-3 0  9990
2 58984  53.1588 327.4039 0001119 130.7891 229.3207 15.30200022 91779
STARLINK-31385          
1 58985U 24031W   25272.17060365  .00005435  00000+0  19551-3 0  9991
2 58985  53.1580 324.7807 0001125  80.2165 279.8962 15.30199426 91813
STARLINK-31229          
1 58986U 24031X   25271.48328180  .00000373  00000+0  24725-4 0  9993
2 58986  53.1603 330.4763 0001162 101.4403 258.6728 15.30184671 91672
