[{"OBJECT_NAME":"STARLINK-31368","OBJECT_ID":"2024-031F","EPOCH":"2025-09-29T03:28:27.310656","MEAN_MOTION":15.30177171,"ECCENTRICITY":0.0001146,"INCLINATION":53.1619,"RA_OF_ASC_NODE":326.7995,"ARG_OF_PERICENTER":81.5269,"MEAN_ANOMALY":278.5862,"EPHEMERIS_TYPE":0,"CLASSIFICATION_TYPE":"U","NORAD_CAT_ID":58970,"ELEMENT_SET_NO":999,"REV_AT_EPOCH":9180,"BSTAR":0.00018196183,"MEAN_MOTION_DOT":5.03e-5,"MEAN_MOTION_DDOT":0},{"OBJECT_NAME":"STARLINK-31333","OBJECT_ID":"2024-031G","EPOCH":"2025-09-29T03:01:58.793088","MEAN_MOTION":15.30198741,"ECCENTRICITY":0.00012782,"INCLINATION":53.1585,"RA_OF_ASC_NODE":314.6044,"ARG_OF_PERICENTER":99.0498,"MEAN_ANOMALY":261.0647,"EPHEMERIS_TYPE":0,"CLASSIFICATION_TYPE":"U","NORAD_CAT_ID":58971,"ELEMENT_SET_NO":999,"REV_AT_EPOCH":9197,"BSTAR":0.00011608237,"MEAN_MOTION_DOT":3.08e-5,"MEAN_MOTION_DDOT":0},{"OBJECT_NAME":"STARLINK-31351","OBJECT_ID":"2024-031H","EPOCH":"2025-09-28T13:47:48.430176","MEAN_MOTION":15.30189967,"ECCENTRICITY":0.00012498,"INCLINATION":53.1608,"RA_OF_ASC_NODE":329.6333,"ARG_OF_PERICENTER":81.1168,"MEAN_ANOMALY":278.9974,"EPHEMERIS_TYPE":0,"CLASSIFICATION_TYPE":"U","NORAD_CAT_ID":58972,"ELEMENT_SET_NO":999,"REV_AT_EPOCH":9170,"BSTAR":6.7433262e-5,"MEAN_MOTION_DOT":1.638e-5,"MEAN_MOTION_DDOT":0},{"OBJECT_NAME":"STARLINK-31365","OBJECT_ID":"2024-031J","EPOCH":"2025-09-29T04:03:23.684832","MEAN_MOTION":15.30193122,"ECCENTRICITY":0.00013147,"INCLINATION":53.16,"RA_OF_ASC_NODE":326.9372,"ARG_OF_PERICENTER":94.2286,"MEAN_ANOMALY":265.8865,"EPHEMERIS_TYPE":0,"CLASSIFICATION_TYPE":"U","NORAD_CAT_ID":58973,"ELEMENT_SET_NO":999,"REV_AT_EPOCH":9180,"BSTAR":6.3449993e-5,"MEAN_MOTION_DOT":1.52e-5,"MEAN_MOTION_DDOT":0},{"OBJECT_NAME":"STARLINK-31361","OBJECT_ID":"2024-031K","EPOCH":"2025-09-29T03:58:50.431872","MEAN_MOTION":15.30196669,"ECCENTRICITY":0.00011239,"INCLINATION":53.1603,"RA_OF_ASC_NODE":326.9208,"ARG_OF_PERICENTER":85.1522,"MEAN_ANOMALY":274.9607,"EPHEMERIS_TYPE":0,"CLASSIFICATION_TYPE":"U","NORAD_CAT_ID":58974,"ELEMENT_SET_NO":999,"REV_AT_EPOCH":9180,"BSTAR":7.3153504e-5,"MEAN_MOTION_DOT":1.808e-5,"MEAN_MOTION_DDOT":0},{"OBJECT_NAME":"STARLINK-31369","OBJECT_ID":"2024-031L","EPOCH":"2025-09-28T10:53:22.361856","MEAN_MOTION":15.30199823,"ECCENTRICITY":0.00010136,"INCLINATION":53.1578,"RA_OF_ASC_NODE":330.2996,"ARG_OF_PERICENTER":91.7267,"MEAN_ANOMALY":268.385,"EPHEMERIS_TYPE":0,"CLASSIFICATION_TYPE":"U","NORAD_CAT_ID":58975,"ELEMENT_SET_NO":999,"REV_AT_EPOCH":9167,"BSTAR":0.00014308996,"MEAN_MOTION_DOT":3.881e-5,"MEAN_MOTION_DDOT":0},{"OBJECT_NAME":"STARLINK-31324","OBJECT_ID":"2024-031M","EPOCH":"2025-09-29T04:12:31.016736","MEAN_MOTION":15.30214159,"ECCENTRICITY":0.00014907,"INCLINATION":53.1585,"RA_OF_ASC_NODE":326.9826,"ARG_OF_PERICENTER":106.1653,"MEAN_ANOMALY":253.9512,"EPHEMERIS_TYPE":0,"CLASSIFICATION_TYPE":"U","NORAD_CAT_ID":58976,"ELEMENT_SET_NO":999,"REV_AT_EPOCH":9178,"BSTAR":0.00082240032,"MEAN_MOTION_DOT":0.00024088,"MEAN_MOTION_DDOT":0},{"OBJECT_NAME":"STARLINK-31358","OBJECT_ID":"2024-031N","EPOCH":"2025-09-29T03:25:26.470272","MEAN_MOTION":15.30171065,"ECCENTRICITY":0.00012896,"INCLINATION":53.1623,"RA_OF_ASC_NODE":326.7626,"ARG_OF_PERICENTER":115.0896,"MEAN_ANOMALY":245.0239,"EPHEMERIS_TYPE":0,"CLASSIFICATION_TYPE":"U","NORAD_CAT_ID":58977,"ELEMENT_SET_NO":999,"REV_AT_EPOCH":9178,"BSTAR":-5.184093e-5,"MEAN_MOTION_DOT":-1.893e-5,"MEAN_MOTION_DDOT":0},{"OBJECT_NAME":"STARLINK-31355","OBJECT_ID":"2024-031P","EPOCH":"2025-09-29T04:17:04.053696","MEAN_MOTION":15.30203906,"ECCENTRICITY":0.00010544,"INCLINATION":53.1591,"RA_OF_ASC_NODE":326.9988,"ARG_OF_PERICENTER":77.5155,"MEAN_ANOMALY":282.5964,"EPHEMERIS_TYPE":0,"CLASSIFICATION_TYPE":"U","NORAD_CAT_ID":58978,"ELEMENT_SET_NO":999,"REV_AT_EPOCH":9178,"BSTAR":8.5258288e-5,"MEAN_MOTION_DOT":2.167e-5,"MEAN_MOTION_DDOT":0},{"OBJECT_NAME":"STARLINK-31380","OBJECT_ID":"2024-031Q","EPOCH":"2025-09-29T04:21:37.941696","MEAN_MOTION":15.3020102,"ECCENTRICITY":0.00010665,"INCLINATION":53.1579,"RA_OF_ASC_NODE":327.0202,"ARG_OF_PERICENTER":92.4624,"MEAN_ANOMALY":267.6499,"EPHEMERIS_TYPE":0,"CLASSIFICATION_TYPE":"U","NORAD_CAT_ID":58979,"ELEMENT_SET_NO":999,"REV_AT_EPOCH":9178,"BSTAR":9.1811757e-5,"MEAN_MOTION_DOT":2.361e-5,"MEAN_MOTION_DDOT":0},{"OBJECT_NAME":"STARLINK-31353","OBJECT_ID":"2024-031R","EPOCH":"2025-09-29T04:18:35.133120","MEAN_MOTION":15.30200249,"ECCENTRICITY":0.00013886,"INCLINATION":53.1605,"RA_OF_ASC_NODE":327.0111,"ARG_OF_PERICENTER":91.1507,"MEAN_ANOMALY":268.9653,"EPHEMERIS_TYPE":0,"CLASSIFICATION_TYPE":"U","NORAD_CAT_ID":58980,"ELEMENT_SET_NO":999,"REV_AT_EPOCH":9178,"BSTAR":0.00011082614,"MEAN_MOTION_DOT":2.924e-5,"MEAN_MOTION_DDOT":0},{"OBJECT_NAME":"STARLINK-31339","OBJECT_ID":"2024-031S","EPOCH":"2025-09-29T04:26:11.148000","MEAN_MOTION":15.30200624,"ECCENTRICITY":0.00010613,"INCLINATION":53.1588,"RA_OF_ASC_NODE":327.0417,"ARG_OF_PERICENTER":55.0756,"MEAN_ANOMALY":305.0345,"EPHEMERIS_TYPE":0,"CLASSIFICATION_TYPE":"U","NORAD_CAT_ID":58981,"ELEMENT_SET_NO":999,"REV_AT_EPOCH":9178,"BSTAR":8.3562732e-5,"MEAN_MOTION_DOT":2.117e-5,"MEAN_MOTION_DDOT":0},{"OBJECT_NAME":"STARLINK-31384","OBJECT_ID":"2024-031U","EPOCH":"2025-09-28T11:20:43.715616","MEAN_MOTION":15.30190616,"ECCENTRICITY":0.00010728,"INCLINATION":53.1605,"RA_OF_ASC_NODE":330.4143,"ARG_OF_PERICENTER":107.2709,"MEAN_ANOMALY":252.8409,"EPHEMERIS_TYPE":0,"CLASSIFICATION_TYPE":"U","NORAD_CAT_ID":58983,"ELEMENT_SET_NO":999,"REV_AT_EPOCH":9167,"BSTAR":4.5594183e-5,"MEAN_MOTION_DOT":9.91e-6,"MEAN_MOTION_DDOT":0},{"OBJECT_NAME":"STARLINK-31379","OBJECT_ID":"2024-031V","EPOCH":"2025-09-29T03:07:20.075808","MEAN_MOTION":15.30200022,"ECCENTRICITY":0.00011195,"INCLINATION":53.1588,"RA_OF_ASC_NODE":327.4039,"ARG_OF_PERICENTER":130.7891,"MEAN_ANOMALY":229.3207,"EPHEMERIS_TYPE":0,"CLASSIFICATION_TYPE":"U","NORAD_CAT_ID":58984,"ELEMENT_SET_NO":999,"REV_AT_EPOCH":9177,"BSTAR":0.0002996972,"MEAN_MOTION_DOT":8.527e-5,"MEAN_MOTION_DDOT":0},{"OBJECT_NAME":"STARLINK-31385","OBJECT_ID":"2024-031W","EPOCH":"2025-09-29T04:05:40.155360","MEAN_MOTION":15.30199426,"ECCENTRICITY":0.00011255,"INCLINATION":53.158,"RA_OF_ASC_NODE":324.7807,"ARG_OF_PERICENTER":80.2165,"MEAN_ANOMALY":279.8962,"EPHEMERIS_TYPE":0,"CLASSIFICATION_TYPE":"U","NORAD_CAT_ID":58985,"ELEMENT_SET_NO":999,"REV_AT_EPOCH":9181,"BSTAR":0.00019550607,"MEAN_MOTION_DOT":5.435e-5,"MEAN_MOTION_DDOT":0},{"OBJECT_NAME":"STARLINK-31229","OBJECT_ID":"2024-031X","EPOCH":"2025-09-28T11:35:55.547520","MEAN_MOTION":15.30184671,"ECCENTRICITY":0.00011625,"INCLINATION":53.1603,"RA_OF_ASC_NODE":330.4763,"ARG_OF_PERICENTER":101.4403,"MEAN_ANOMALY":258.6728,"EPHEMERIS_TYPE":0,"CLASSIFICATION_TYPE":"U","NORAD_CAT_ID":58986,"ELEMENT_SET_NO":999,"REV_AT_EPOCH":9167,"BSTAR":2.4725341e-5,"MEAN_MOTION_DOT":3.73e-6,"MEAN_MOTION_DDOT":0}]
